[Satellite]
VERSION=1.1
NAME=OreSat0
NICKNAME=OreSat0
TLE1=1 52017U 22026K   22335.74022219  .00008470  00000-0  42171-3 0  9996
TLE2=2 52017  97.5090 333.7419 0027843  56.0648 304.3227 15.17494602 39530
STATUS=0
